{"type": "FeatureCollection", "features": [ {"type": "Feature", "properties": {"norad_id": 43058, "name": "GSAT0218 (GALILEO 22)", "group": "galileo", "lat": -33.06189099647464, "lon": -160.59115126086968, "alt_km": 23218.235691262627, "timestamp": "2025-12-21T22:41:41.723217+00:00", "meta": {"OBJECT_NAME": "GSAT0218 (GALILEO 22)", "OBJECT_ID": "2017-079D", "EPOCH": "2025-12-20T06:05:26.226528", "MEAN_MOTION": 1.70474115, "ECCENTRICITY": 0.00027735, "INCLINATION": 55.1262, "RA_OF_ASC_NODE": 226.4264, "ARG_OF_PERICENTER": 307.8467, "MEAN_ANOMALY": 52.2377, "EPHEMERIS_TYPE": 0, "CLASSIFICATION_TYPE": "U", "NORAD_CAT_ID": 43058, "ELEMENT_SET_NO": 999, "REV_AT_EPOCH": 4996, "BSTAR": 0, "MEAN_MOTION_DOT": 7e-07, "MEAN_MOTION_DDOT": 0}, "tle": {"line1": "1 43058U 17079D   25354.25377577  .00000070  00000+0  00000+0 0  9991", "line2": "2 43058  55.1262 226.4264 0002773 307.8467  52.2377  1.70474115 49967"}}, "geometry": {"type": "Point", "coordinates": [-160.59115126086968, -33.06189099647464]}}, {"type": "Feature", "properties": {"norad_id": 43564, "name": "GSAT0221 (GALILEO 25)", "group": "galileo", "lat": 15.151860177315106, "lon": -3.3940148325306487, "alt_km": 23221.11197783356, "timestamp": "2025-12-21T22:41:41.723228+00:00", "meta": {"OBJECT_NAME": "GSAT0221 (GALILEO 25)", "OBJECT_ID": "2018-060A", "EPOCH": "2025-12-19T13:40:28.820064", "MEAN_MOTION": 1.70475889, "ECCENTRICITY": 0.0006721, "INCLINATION": 57.2264, "RA_OF_ASC_NODE": 346.6332, "ARG_OF_PERICENTER": 285.6827, "MEAN_ANOMALY": 74.2548, "EPHEMERIS_TYPE": 0, "CLASSIFICATION_TYPE": "U", "NORAD_CAT_ID": 43564, "ELEMENT_SET_NO": 999, "REV_AT_EPOCH": 4610, "BSTAR": 0, "MEAN_MOTION_DOT": -7.2e-07, "MEAN_MOTION_DDOT": 0}, "tle": {"line1": "1 43564U 18060A   25353.56977801 -.00000072  00000+0  00000+0 0  9996", "line2": "2 43564  57.2264 346.6332 0006721 285.6827  74.2548  1.70475889 46101"}}, "geometry": {"type": "Point", "coordinates": [-3.3940148325306487, 15.151860177315106]}}, {"type": "Feature", "properties": {"norad_id": 43565, "name": "GSAT0222 (GALILEO 26)", "group": "galileo", "lat": -48.75196795120651, "lon": -146.16311632322274, "alt_km": 23210.98360844034, "timestamp": "2025-12-21T22:41:41.723239+00:00", "meta": {"OBJECT_NAME": "GSAT0222 (GALILEO 26)", "OBJECT_ID": "2018-060B", "EPOCH": "2025-12-20T23:05:42.344160", "MEAN_MOTION": 1.70475571, "ECCENTRICITY": 0.0006061, "INCLINATION": 57.2294, "RA_OF_ASC_NODE": 346.5987, "ARG_OF_PERICENTER": 266.4874, "MEAN_ANOMALY": 93.4525, "EPHEMERIS_TYPE": 0, "CLASSIFICATION_TYPE": "U", "NORAD_CAT_ID": 43565, "ELEMENT_SET_NO": 999, "REV_AT_EPOCH": 4617, "BSTAR": 0, "MEAN_MOTION_DOT": -6.8e-07, "MEAN_MOTION_DDOT": 0}, "tle": {"line1": "1 43565U 18060B   25354.96229565 -.00000068  00000+0  00000+0 0  9994", "line2": "2 43565  57.2294 346.5987 0006061 266.4874  93.4525  1.70475571 46179"}}, "geometry": {"type": "Point", "coordinates": [-146.16311632322274, -48.75196795120651]}}, {"type": "Feature", "properties": {"norad_id": 43566, "name": "GSAT0219 (GALILEO 23)", "group": "galileo", "lat": 53.1924475519935, "lon": 107.1431493425259, "alt_km": 23233.216874261165, "timestamp": "2025-12-21T22:41:41.723250+00:00", "meta": {"OBJECT_NAME": "GSAT0219 (GALILEO 23)", "OBJECT_ID": "2018-060C", "EPOCH": "2025-12-18T20:05:25.027008", "MEAN_MOTION": 1.70475846, "ECCENTRICITY": 0.00058667, "INCLINATION": 57.2292, "RA_OF_ASC_NODE": 346.6575, "ARG_OF_PERICENTER": 289.8664, "MEAN_ANOMALY": 70.0835, "EPHEMERIS_TYPE": 0, "CLASSIFICATION_TYPE": "U", "NORAD_CAT_ID": 43566, "ELEMENT_SET_NO": 999, "REV_AT_EPOCH": 4611, "BSTAR": 0, "MEAN_MOTION_DOT": -7.4e-07, "MEAN_MOTION_DDOT": 0}, "tle": {"line1": "1 43566U 18060C   25352.83709522 -.00000074  00000+0  00000+0 0  9992", "line2": "2 43566  57.2292 346.6575 0005866 289.8664  70.0835  1.70475846 46114"}}, "geometry": {"type": "Point", "coordinates": [107.1431493425259, 53.1924475519935]}}, {"type": "Feature", "properties": {"norad_id": 43567, "name": "GSAT0220 (GALILEO 24)", "group": "galileo", "lat": -23.10456490846522, "lon": -29.38994244601853, "alt_km": 23212.098591845708, "timestamp": "2025-12-21T22:41:41.723261+00:00", "meta": {"OBJECT_NAME": "GSAT0220 (GALILEO 24)", "OBJECT_ID": "2018-060D", "EPOCH": "2025-12-19T15:28:13.770912", "MEAN_MOTION": 1.70475932, "ECCENTRICITY": 0.000607, "INCLINATION": 57.2288, "RA_OF_ASC_NODE": 346.6359, "ARG_OF_PERICENTER": 288.3471, "MEAN_ANOMALY": 71.5983, "EPHEMERIS_TYPE": 0, "CLASSIFICATION_TYPE": "U", "NORAD_CAT_ID": 43567, "ELEMENT_SET_NO": 999, "REV_AT_EPOCH": 4611, "BSTAR": 0, "MEAN_MOTION_DOT": -7.2e-07, "MEAN_MOTION_DDOT": 0}, "tle": {"line1": "1 43567U 18060D   25353.64460383 -.00000072  00000+0  00000+0 0  9990", "line2": "2 43567  57.2288 346.6359 0006070 288.3471  71.5983  1.70475932 46114"}}, "geometry": {"type": "Point", "coordinates": [-29.38994244601853, -23.10456490846522]}}, {"type": "Feature", "properties": {"norad_id": 49809, "name": "GSAT0223 (GALILEO 27)", "group": "galileo", "lat": 48.44218207657094, "lon": 33.08844562716924, "alt_km": 23229.051078709526, "timestamp": "2025-12-21T22:41:41.723272+00:00", "meta": {"OBJECT_NAME": "GSAT0223 (GALILEO 27)", "OBJECT_ID": "2021-116A", "EPOCH": "2025-12-19T11:56:47.637312", "MEAN_MOTION": 1.7047609, "ECCENTRICITY": 0.00044147, "INCLINATION": 57.2179, "RA_OF_ASC_NODE": 346.5305, "ARG_OF_PERICENTER": 254.6091, "MEAN_ANOMALY": 105.9777, "EPHEMERIS_TYPE": 0, "CLASSIFICATION_TYPE": "U", "NORAD_CAT_ID": 49809, "ELEMENT_SET_NO": 999, "REV_AT_EPOCH": 2512, "BSTAR": 0, "MEAN_MOTION_DOT": -7.2e-07, "MEAN_MOTION_DDOT": 0}, "tle": {"line1": "1 49809U 21116A   25353.49777358 -.00000072  00000+0  00000+0 0  9997", "line2": "2 49809  57.2179 346.5305 0004414 254.6091 105.9777  1.70476090 25129"}}, "geometry": {"type": "Point", "coordinates": [33.08844562716924, 48.44218207657094]}}, {"type": "Feature", "properties": {"norad_id": 49810, "name": "GSAT0224 (GALILEO 28)", "group": "galileo", "lat": 3.799905449895036, "lon": 163.99901138337444, "alt_km": 23220.66454201412, "timestamp": "2025-12-21T22:41:41.723283+00:00", "meta": {"OBJECT_NAME": "GSAT0224 (GALILEO 28)", "OBJECT_ID": "2021-116B", "EPOCH": "2025-12-20T04:43:34.979232", "MEAN_MOTION": 1.70476091, "ECCENTRICITY": 0.0003747, "INCLINATION": 57.2188, "RA_OF_ASC_NODE": 346.5104, "ARG_OF_PERICENTER": 259.7047, "MEAN_ANOMALY": 282.5653, "EPHEMERIS_TYPE": 0, "CLASSIFICATION_TYPE": "U", "NORAD_CAT_ID": 49810, "ELEMENT_SET_NO": 999, "REV_AT_EPOCH": 2515, "BSTAR": 0, "MEAN_MOTION_DOT": -7e-07, "MEAN_MOTION_DDOT": 0}, "tle": {"line1": "1 49810U 21116B   25354.19693263 -.00000070  00000+0  00000+0 0  9997", "line2": "2 49810  57.2188 346.5104 0003747 259.7047 282.5653  1.70476091 25152"}}, "geometry": {"type": "Point", "coordinates": [163.99901138337444, 3.799905449895036]}}, {"type": "Feature", "properties": {"norad_id": 59598, "name": "GSAT0225 (GALILEO 29)", "group": "galileo", "lat": 9.758246692910898, "lon": -80.87424196323046, "alt_km": 23214.835427890266, "timestamp": "2025-12-21T22:41:41.723316+00:00", "meta": {"OBJECT_NAME": "GSAT0225 (GALILEO 29)", "OBJECT_ID": "2024-079A", "EPOCH": "2025-12-19T07:40:30.040032", "MEAN_MOTION": 1.7047502, "ECCENTRICITY": 0.0002191, "INCLINATION": 55.0052, "RA_OF_ASC_NODE": 106.1117, "ARG_OF_PERICENTER": 185.2617, "MEAN_ANOMALY": 171.1938, "EPHEMERIS_TYPE": 0, "CLASSIFICATION_TYPE": "U", "NORAD_CAT_ID": 59598, "ELEMENT_SET_NO": 999, "REV_AT_EPOCH": 1024, "BSTAR": 0, "MEAN_MOTION_DOT": -6e-08, "MEAN_MOTION_DDOT": 0}, "tle": {"line1": "1 59598U 24079A   25353.31979213 -.00000006  00000+0  00000+0 0  9996", "line2": "2 59598  55.0052 106.1117 0002191 185.2617 171.1938  1.70475020 10248"}}, "geometry": {"type": "Point", "coordinates": [-80.87424196323046, 9.758246692910898]}}, {"type": "Feature", "properties": {"norad_id": 59600, "name": "GSAT0227 (GALILEO 30)", "group": "galileo", "lat": 42.45119611559557, "lon": 145.82195174990872, "alt_km": 23212.94291470594, "timestamp": "2025-12-21T22:41:41.723329+00:00", "meta": {"OBJECT_NAME": "GSAT0227 (GALILEO 30)", "OBJECT_ID": "2024-079C", "EPOCH": "2025-12-21T06:26:54.419424", "MEAN_MOTION": 1.70474886, "ECCENTRICITY": 0.00028696, "INCLINATION": 55.0016, "RA_OF_ASC_NODE": 106.0558, "ARG_OF_PERICENTER": 117.1813, "MEAN_ANOMALY": 242.8188, "EPHEMERIS_TYPE": 0, "CLASSIFICATION_TYPE": "U", "NORAD_CAT_ID": 59600, "ELEMENT_SET_NO": 999, "REV_AT_EPOCH": 1033, "BSTAR": 0, "MEAN_MOTION_DOT": 1e-08, "MEAN_MOTION_DDOT": 0}, "tle": {"line1": "1 59600U 24079C   25355.26868541  .00000001  00000+0  00000+0 0  9991", "line2": "2 59600  55.0016 106.0558 0002869 117.1813 242.8188  1.70474886 10336"}}, "geometry": {"type": "Point", "coordinates": [145.82195174990872, 42.45119611559557]}}, {"type": "Feature", "properties": {"norad_id": 61182, "name": "GSAT0232 (GALILEO 32)", "group": "galileo", "lat": -50.47852109596735, "lon": 103.49428813556098, "alt_km": 23223.81342218522, "timestamp": "2025-12-21T22:41:41.723340+00:00", "meta": {"OBJECT_NAME": "GSAT0232 (GALILEO 32)", "OBJECT_ID": "2024-167A", "EPOCH": "2025-12-21T05:44:27.225600", "MEAN_MOTION": 1.70473624, "ECCENTRICITY": 0.0001881, "INCLINATION": 55.2384, "RA_OF_ASC_NODE": 226.1977, "ARG_OF_PERICENTER": 205.7333, "MEAN_ANOMALY": 330.6739, "EPHEMERIS_TYPE": 0, "CLASSIFICATION_TYPE": "U", "NORAD_CAT_ID": 61182, "ELEMENT_SET_NO": 999, "REV_AT_EPOCH": 784, "BSTAR": 0, "MEAN_MOTION_DOT": 7.3e-07, "MEAN_MOTION_DDOT": 0}, "tle": {"line1": "1 61182U 24167A   25355.23920400  .00000073  00000+0  00000+0 0  9996", "line2": "2 61182  55.2384 226.1977 0001881 205.7333 330.6739  1.70473624  7846"}}, "geometry": {"type": "Point", "coordinates": [103.49428813556098, -50.47852109596735]}}]}